H1 CPF 01  gfz 2022 01 19 01  5191 terrasarx 
H2 0702601  6201 31698    2022 01 19 00 59 42 2022 01 24 00 00 42   120 1 1  0 0 0
H9
10 0 59598  69822.000000  0   -4023530.519   2227805.738  -5135984.359
10 0 59598  69942.000000  0   -3303960.406   2070246.327  -5686162.124
10 0 59598  70062.000000  0   -2530237.273   1863691.570  -6136953.740
10 0 59598  70182.000000  0   -1716660.144   1610932.388  -6480573.988
10 0 59598  70302.000000  0    -878130.800   1315804.387  -6711101.318
10 0 59598  70422.000000  0     -29884.152    983129.039  -6824568.936
10 0 59598  70542.000000  0     812782.037    618635.796  -6819025.018
10 0 59598  70662.000000  0    1634776.312    228865.568  -6694564.963
10 0 59598  70782.000000  0    2421478.718   -178944.229  -6453329.423
10 0 59598  70902.000000  0    3158995.136   -596990.081  -6099471.620
10 0 59598  71022.000000  0    3834400.165  -1017047.246  -5639092.723
10 0 59598  71142.000000  0    4435962.577  -1430626.445  -5080146.995
10 0 59598  71262.000000  0    4953353.487  -1829141.952  -4432316.570
10 0 59598  71382.000000  0    5377830.670  -2204086.848  -3706854.362
10 0 59598  71502.000000  0    5702395.856  -2547211.761  -2916397.726
10 0 59598  71622.000000  0    5921921.079  -2850703.689  -2074753.930
10 0 59598  71742.000000  0    6033239.585  -3107360.501  -1196660.861
10 0 59598  71862.000000  0    6035199.496  -3310756.779   -297527.910
10 0 59598  71982.000000  0    5928677.765  -3455397.080    606839.243
10 0 59598  72102.000000  0    5716554.002  -3536852.498   1500523.383
10 0 59598  72222.000000  0    5403643.176  -3551876.232   2367786.308
10 0 59598  72342.000000  0    4996587.291  -3498494.097   3193354.415
10 0 59598  72462.000000  0    4503712.388  -3376069.032   3962694.695
10 0 59598  72582.000000  0    3934854.048  -3185337.376   4662274.794
10 0 59598  72702.000000  0    3301154.761  -2928418.060   5279804.269
10 0 59598  72822.000000  0    2614837.654  -2608791.798   5804449.338
10 0 59598  72942.000000  0    1888964.785  -2231252.695   6227019.121
10 0 59598  73062.000000  0    1137183.687  -1801834.191   6540121.142
10 0 59598  73182.000000  0     373467.715  -1327710.209   6738284.582
10 0 59598  73302.000000  0    -388144.755   -817073.208   6818049.917
10 0 59598  73422.000000  0   -1133807.726   -278991.647   6778024.771
10 0 59598  73542.000000  0   -1850118.013    276750.730   6618906.549
10 0 59598  73662.000000  0   -2524355.182    839832.249   6343471.186
10 0 59598  73782.000000  0   -3144707.527   1399583.986   5956528.062
10 0 59598  73902.000000  0   -3700480.752   1945190.947   5464841.739
10 0 59598  74022.000000  0   -4182286.745   2465901.141   4877020.597
10 0 59598  74142.000000  0   -4582208.311   2951239.219   4203371.953
10 0 59598  74262.000000  0   -4893935.931   3391218.610   3455724.726
10 0 59598  74382.000000  0   -5112873.195   3776549.044   2647223.954
10 0 59598  74502.000000  0   -5236209.310   4098834.998   1792099.606
10 0 59598  74622.000000  0   -5262956.787   4350759.975    905412.266
10 0 59598  74742.000000  0   -5193951.047   4526250.705      2780.503
10 0 59598  74862.000000  0   -5031813.200   4620616.822   -899901.836
10 0 59598  74982.000000  0   -4780877.242   4630664.511  -1786755.073
10 0 59598  75102.000000  0   -4447081.275   4554779.042  -2642202.665
10 0 59598  75222.000000  0   -4037827.364   4392973.423  -3451251.559
10 0 59598  75342.000000  0   -3561813.598   4146903.901  -4199757.914
10 0 59598  75462.000000  0   -3028844.081   3819852.671  -4874672.495
10 0 59598  75582.000000  0   -2449622.864   3416679.161  -5464261.787
10 0 59598  75702.000000  0   -1835536.874   2943742.756  -5958304.115
10 0 59598  75822.000000  0   -1198430.104   2408796.516  -6348257.497
10 0 59598  75942.000000  0    -550375.425   1820855.112  -6627395.464
10 0 59598  76062.000000  0      96551.182   1190041.492  -6790911.789
10 0 59598  76182.000000  0     730490.226    527413.597  -6835994.379
10 0 59598  76302.000000  0    1340011.347   -155225.729  -6761869.781
10 0 59598  76422.000000  0    1914315.113   -845535.004  -6569813.829
10 0 59598  76542.000000  0    2443419.400  -1530851.309  -6263131.558
10 0 59598  76662.000000  0    2918330.499  -2198416.710  -5847106.527
10 0 59598  76782.000000  0    3331195.653  -2835610.816  -5328920.490
10 0 59598  76902.000000  0    3675436.509  -3430189.373  -4717541.063
10 0 59598  77022.000000  0    3945857.276  -3970520.272  -4023575.387
10 0 59598  77142.000000  0    4138726.999  -4445812.693  -3259096.483
10 0 59598  77262.000000  0    4251835.905  -4846337.257  -2437441.710
10 0 59598  77382.000000  0    4284522.880  -5163631.426  -1572984.296
10 0 59598  77502.000000  0    4237670.775  -5390684.273   -680881.509
10 0 59598  77622.000000  0    4113670.932  -5522094.493    223195.050
10 0 59598  77742.000000  0    3916356.354  -5554198.342   1123341.228
10 0 59598  77862.000000  0    3650905.839  -5485163.494   2003709.080
10 0 59598  77982.000000  0    3323719.632  -5315044.520   2848795.383
10 0 59598  78102.000000  0    2942270.946  -5045801.269   3643721.688
10 0 59598  78222.000000  0    2514938.023  -4681278.264   4374502.183
10 0 59598  78342.000000  0    2050820.830  -4227146.337   5028293.078
10 0 59598  78462.000000  0    1559546.487  -3690808.064   5593618.642
10 0 59598  78582.000000  0    1051068.263  -3081269.513   6060570.870
10 0 59598  78702.000000  0     535462.174  -2408981.466   6420977.689
10 0 59598  78822.000000  0      22726.893  -1685655.018   6668538.903
10 0 59598  78942.000000  0    -477409.164   -924054.999   6798930.058
10 0 59598  79062.000000  0    -955671.133   -137773.016   6809874.391
10 0 59598  79182.000000  0   -1403408.815    659015.546   6701179.872
10 0 59598  79302.000000  0   -1812752.608   1451806.490   6474742.061
10 0 59598  79422.000000  0   -2176751.927   2226029.776   6134513.170
10 0 59598  79542.000000  0   -2489494.069   2967317.061   5686437.437
10 0 59598  79662.000000  0   -2746201.439   3661769.669   5138353.316
10 0 59598  79782.000000  0   -2943306.869   4296222.685   4499863.362
10 0 59598  79902.000000  0   -3078504.297   4858500.396   3782171.215
10 0 59598  80022.000000  0   -3150773.464   5337657.559   2997888.117
10 0 59598  80142.000000  0   -3160377.704   5724200.111   2160811.142
10 0 59598  80262.000000  0   -3108835.352   6010279.786   1285677.914
10 0 59598  80382.000000  0   -2998864.645   6189858.886    387902.601
10 0 59598  80502.000000  0   -2834303.522   6258841.019   -516702.892
10 0 59598  80622.000000  0   -2620006.958   6215163.183  -1412216.955
10 0 59598  80742.000000  0   -2361722.742   6058845.532  -2282900.079
10 0 59598  80862.000000  0   -2065948.215   5791995.563  -3113479.228
10 0 59598  80982.000000  0   -1739775.004   5418773.031  -3889417.988
10 0 59598  81102.000000  0   -1390725.501   4945314.999  -4597171.550
10 0 59598  81222.000000  0   -1026584.839   4379623.182  -5224418.916
10 0 59598  81342.000000  0    -655232.266   3731419.088  -5760270.583
10 0 59598  81462.000000  0    -284474.715   3011968.075  -6195449.470
10 0 59598  81582.000000  0      78113.366   2233876.065  -6522440.556
10 0 59598  81702.000000  0     425339.853   1410866.109  -6735608.545
10 0 59598  81822.000000  0     750532.913    557537.462  -6831286.130
10 0 59598  81942.000000  0    1047665.576   -310889.793  -6807830.089
10 0 59598  82062.000000  0    1311464.097  -1178841.187  -6665645.636
10 0 59598  82182.000000  0    1537498.871  -2030659.761  -6407178.752
10 0 59598  82302.000000  0    1722257.782  -2850880.830  -6036879.344
10 0 59598  82422.000000  0    1863200.901  -3624508.055  -5561134.366
10 0 59598  82542.000000  0    1958794.918  -4337288.237  -4988168.474
10 0 59598  82662.000000  0    2008526.863  -4975975.345  -4327911.239
10 0 59598  82782.000000  0    2012897.105  -5528580.909  -3591836.249
10 0 59598  82902.000000  0    1973391.067  -5984608.081  -2792771.012
10 0 59598  83022.000000  0    1892429.315  -6335262.379  -1944679.196
10 0 59598  83142.000000  0    1773297.105  -6573632.062  -1062417.729
10 0 59598  83262.000000  0    1620055.953  -6694835.704   -161475.309
10 0 59598  83382.000000  0    1437438.140  -6696129.581    742306.632
10 0 59598  83502.000000  0    1230726.234  -6576973.212   1633018.683
10 0 59598  83622.000000  0    1005621.073  -6339051.752   2494974.172
10 0 59598  83742.000000  0     768101.991  -5986250.216   3312994.493
10 0 59598  83862.000000  0     524281.355  -5524584.697   4072682.860
10 0 59598  83982.000000  0     280259.049  -4962092.190   4760681.470
10 0 59598  84102.000000  0      41979.636  -4308681.312   5364908.020
10 0 59598  84222.000000  0    -184903.807  -3575947.655   5874766.583
10 0 59598  84342.000000  0    -395155.906  -2776957.962   6281329.884
10 0 59598  84462.000000  0    -584073.615  -1926009.380   6577488.167
10 0 59598  84582.000000  0    -747586.504  -1038370.688   6758066.709
10 0 59598  84702.000000  0    -882341.055   -130006.789   6819912.138
10 0 59598  84822.000000  0    -985768.010    782709.326   6761944.578
10 0 59598  84942.000000  0   -1056130.717   1683291.410   6585175.088
10 0 59598  85062.000000  0   -1092553.925   2555436.997   6292689.001
10 0 59598  85182.000000  0   -1095033.408   3383322.420   5889595.613
10 0 59598  85302.000000  0   -1064426.124   4151891.808   5382944.073
10 0 59598  85422.000000  0   -1002420.105   4847134.501   4781606.227
10 0 59598  85542.000000  0    -911486.168   5456347.747   4096127.338
10 0 59598  85662.000000  0    -794810.576   5968376.751   3338544.192
10 0 59598  85782.000000  0    -656212.142   6373828.469   2522178.095
10 0 59598  85902.000000  0    -500043.892   6665256.746   1661398.157
10 0 59598  86022.000000  0    -331080.142   6837306.552    771362.859
10 0 59598  86142.000000  0    -154393.914   6886818.131   -132253.187
10 0 59598  86262.000000  0      24772.819   6812888.554  -1033543.598
99
